OBJECT_NAME,OBJECT_ID,EPOCH,MEAN_MOTION,ECCENTRICITY,INCLINATION,RA_OF_ASC_NODE,ARG_OF_PERICENTER,MEAN_ANOMALY,EPHEMERIS_TYPE,CLASSIFICATION_TYPE,NORAD_CAT_ID,ELEMENT_SET_NO,REV_AT_EPOCH,BSTAR,MEAN_MOTION_DOT,MEAN_MOTION_DDOT
ONEWEB-0275,2021-060AC,2026-07-04T20:39:26.409312,13.16595498,.00019223,87.9079,225.2657,96.7984,263.3366,0,U,48993,999,24188,.20153221E-3,.9E-6,0
ONEWEB-0276,2021-060AD,2026-07-05T01:06:11.388960,13.16594030,.00018925,87.9084,225.2281,93.3716,266.7632,0,U,48994,999,24192,.528838E-6,.13E-6,0
ONEWEB-0277,2021-060AE,2026-07-05T01:24:26.763840,13.16595174,.00020324,87.9076,225.2335,99.9022,260.2339,0,U,48995,999,24191,-.72874542E-4,-.15E-6,0
ONEWEB-0278,2021-060AF,2026-07-05T01:10:45.081696,13.16593580,.0002263,87.9088,225.2269,92.7005,267.4385,0,U,48996,999,24204,-.11566087E-4,.8E-7,0
ONEWEB-0279,2021-060AG,2026-07-05T01:22:08.963616,13.16593573,.00018559,87.9085,225.2235,100.5704,259.5636,0,U,48997,999,24197,.46916077E-4,.31E-6,0
ONEWEB-0280,2021-060AH,2026-07-04T14:47:11.828832,13.16594611,.00023859,87.9085,225.3149,100.0788,260.0613,0,U,48998,999,24185,-.11787267E-3,-.32E-6,0
ONEWEB-0281,2021-060AJ,2026-07-05T01:51:46.997856,13.16593069,.00020748,87.9081,225.2187,94.0840,266.0528,0,U,48999,999,24198,.77291516E-4,.42E-6,0
ONEWEB-0282,2021-060AK,2026-07-04T19:17:22.095744,13.16594290,.00021292,87.9082,225.2810,98.3356,261.8016,0,U,49000,999,24192,.15253743E-3,.71E-6,0
ONEWEB-0283,2021-060AL,2026-07-04T15:22:31.108512,13.16593406,.00019359,87.9082,225.3128,98.7778,261.3572,0,U,49001,999,24191,.14530135E-3,.68E-6,0
ONEWEB-0284,2021-060AM,2026-07-04T20:41:43.564128,13.16593233,.00024228,87.9087,225.2626,96.6021,263.5386,0,U,49002,999,24192,.24522637E-3,.107E-5,0
ONEWEB-0285,2021-075A,2026-07-04T21:35:40.680096,13.12453750,.00018608,87.8966,347.1407,94.0552,266.0789,0,U,49075,999,23753,.43521071E-2,.1579E-4,0
ONEWEB-0286,2021-075B,2026-07-04T21:09:51.063264,13.12443338,.00018352,87.8949,347.1584,87.1952,272.9386,0,U,49076,999,23688,.18457927E-3,.79E-6,0
ONEWEB-0287,2021-075C,2026-07-04T22:27:24.757344,13.17650339,.00020656,87.9136,2.3343,79.8218,280.3147,0,U,49077,999,23596,.12119145E-3,.6E-6,0
ONEWEB-0288,2021-075D,2026-07-04T16:56:18.750912,13.12441566,.00019998,87.8964,347.1718,89.5939,270.5419,0,U,49078,999,23748,-.11893781E-2,-.415E-5,0
ONEWEB-0289,2021-075E,2026-07-04T17:55:04.937952,13.17649027,.00021813,87.9143,2.3900,98.2485,261.8894,0,U,49079,999,23651,.10196388E-3,.52E-6,0
ONEWEB-0290,2021-075F,2026-07-04T17:16:24.291840,13.17650015,.00022583,87.9146,2.3675,101.4887,258.6499,0,U,49080,999,23592,.19546924E-3,.89E-6,0
ONEWEB-0291,2021-075G,2026-07-04T22:22:33.892608,13.17646191,.00022096,87.9138,2.3317,87.8470,272.2914,0,U,49081,999,23594,-.2356345E-5,.12E-6,0
ONEWEB-0293,2021-075H,2026-07-04T22:59:01.260672,13.17649543,.00020053,87.9124,2.3297,92.3196,267.8165,0,U,49082,999,23597,-.35928757E-3,-.127E-5,0
ONEWEB-0294,2021-075J,2026-07-04T20:45:38.804544,13.12442746,.00020973,87.8963,347.1440,100.1782,259.9583,0,U,49083,999,23689,-.10455067E-2,-.363E-5,0
ONEWEB-0295,2021-075K,2026-07-04T22:57:48.792672,13.17649416,.00021153,87.9136,2.3337,84.7725,275.3648,0,U,49084,999,23593,-.79399735E-4,-.18E-6,0
ONEWEB-0296,2021-075L,2026-07-04T20:16:22.739232,13.12440889,.00021679,87.8966,347.1558,88.8554,271.2823,0,U,49085,999,23689,.13674266E-3,.62E-6,0
ONEWEB-0297,2021-075M,2026-07-04T21:00:17.024256,13.12443371,.000189,87.8951,347.1582,91.0347,269.0998,0,U,49086,999,23750,-.2971285E-3,-.94E-6,0
ONEWEB-0298,2021-075N,2026-07-04T23:04:06.127392,13.17648534,.00017905,87.9137,2.3310,87.5942,272.5395,0,U,49087,999,23596,.44035856E-4,.3E-6,0
ONEWEB-0299,2021-075P,2026-07-04T21:16:56.983296,13.17648827,.00019608,87.9147,2.3278,85.8246,274.3110,0,U,49088,999,23593,-.39477082E-3,-.14E-5,0
ONEWEB-0300,2021-075Q,2026-07-04T20:49:18.085152,13.12442488,.00015158,87.8967,347.1414,86.3419,273.7883,0,U,49089,999,23752,-.90326694E-3,-.312E-5,0
ONEWEB-0301,2021-075R,2026-07-04T20:26:07.601568,13.12441442,.0001478,87.8958,347.1419,91.4436,268.6862,0,U,49090,999,23688,-.97764276E-3,-.339E-5,0
ONEWEB-0302,2021-075S,2026-07-04T20:06:36.801216,13.12441193,.00021048,87.8963,347.1571,96.4083,263.7286,0,U,49091,999,23686,.40548655E-3,.159E-5,0
ONEWEB-0304,2021-075T,2026-07-04T22:29:50.829504,13.17650677,.00019582,87.9138,2.3385,86.9990,273.1366,0,U,49092,999,23591,.62497144E-4,.37E-6,0
ONEWEB-0305,2021-075U,2026-07-04T18:41:26.259360,13.17649765,.00020784,87.9145,2.3559,80.8920,279.2446,0,U,49093,999,23592,-.93202149E-4,-.23E-6,0
ONEWEB-0308,2021-075V,2026-07-04T21:46:38.314560,13.12441304,.00018255,87.8961,347.1353,94.6454,265.4883,0,U,49094,999,23688,.10087627E-2,.376E-5,0
