ONEWEB-0275             
1 48993U 21060AC  26185.86072233  .00000090  00000+0  20153-3 0  9997
2 48993  87.9079 225.2657 0001922  96.7984 263.3366 13.16595498241884
ONEWEB-0276             
1 48994U 21060AD  26186.04596515  .00000013  00000+0  52884-6 0  9997
2 48994  87.9084 225.2281 0001892  93.3716 266.7632 13.16594030241925
ONEWEB-0277             
1 48995U 21060AE  26186.05864310 -.00000015  00000+0 -72875-4 0  9994
2 48995  87.9076 225.2335 0002032  99.9022 260.2339 13.16595174241918
ONEWEB-0278             
1 48996U 21060AF  26186.04913289  .00000008  00000+0 -11566-4 0  9995
2 48996  87.9088 225.2269 0002263  92.7005 267.4385 13.16593580242040
ONEWEB-0279             
1 48997U 21060AG  26186.05704819  .00000031  00000+0  46916-4 0  9996
2 48997  87.9085 225.2235 0001855 100.5704 259.5636 13.16593573241975
ONEWEB-0280             
1 48998U 21060AH  26185.61610913 -.00000032  00000+0 -11787-3 0  9999
2 48998  87.9085 225.3149 0002385 100.0788 260.0613 13.16594611241850
ONEWEB-0281             
1 48999U 21060AJ  26186.07762729  .00000042  00000+0  77292-4 0  9997
2 48999  87.9081 225.2187 0002074  94.0840 266.0528 13.16593069241985
ONEWEB-0282             
1 49000U 21060AK  26185.80372796  .00000071  00000+0  15254-3 0  9993
2 49000  87.9082 225.2810 0002129  98.3356 261.8016 13.16594290241929
ONEWEB-0283             
1 49001U 21060AL  26185.64063783  .00000068  00000+0  14530-3 0  9991
2 49001  87.9082 225.3128 0001935  98.7778 261.3572 13.16593406241918
ONEWEB-0284             
1 49002U 21060AM  26185.86230977  .00000107  00000+0  24523-3 0  9994
2 49002  87.9087 225.2626 0002422  96.6021 263.5386 13.16593233241922
ONEWEB-0285             
1 49075U 21075A   26185.89977639  .00001579  00000+0  43521-2 0  9998
2 49075  87.8966 347.1407 0001860  94.0552 266.0789 13.12453750237536
ONEWEB-0286             
1 49076U 21075B   26185.88184101  .00000079  00000+0  18458-3 0  9998
2 49076  87.8949 347.1584 0001835  87.1952 272.9386 13.12443338236880
ONEWEB-0287             
1 49077U 21075C   26185.93570321  .00000060  00000+0  12119-3 0  9996
2 49077  87.9136   2.3343 0002065  79.8218 280.3147 13.17650339235964
ONEWEB-0288             
1 49078U 21075D   26185.70577258 -.00000415  00000+0 -11894-2 0  9992
2 49078  87.8964 347.1718 0001999  89.5939 270.5419 13.12441566237489
ONEWEB-0289             
1 49079U 21075E   26185.74658493  .00000052  00000+0  10196-3 0  9998
2 49079  87.9143   2.3900 0002181  98.2485 261.8894 13.17649027236510
ONEWEB-0290             
1 49080U 21075F   26185.71972560  .00000089  00000+0  19547-3 0  9990
2 49080  87.9146   2.3675 0002258 101.4887 258.6499 13.17650015235920
ONEWEB-0291             
1 49081U 21075G   26185.93233672  .00000012  00000+0 -23563-5 0  9991
2 49081  87.9138   2.3317 0002209  87.8470 272.2914 13.17646191235942
ONEWEB-0293             
1 49082U 21075H   26185.95765348 -.00000127  00000+0 -35929-3 0  9999
2 49082  87.9124   2.3297 0002005  92.3196 267.8165 13.17649543235970
ONEWEB-0294             
1 49083U 21075J   26185.86503246 -.00000363  00000+0 -10455-2 0  9995
2 49083  87.8963 347.1440 0002097 100.1782 259.9583 13.12442746236890
ONEWEB-0295             
1 49084U 21075K   26185.95681473 -.00000018  00000+0 -79400-4 0  9999
2 49084  87.9136   2.3337 0002115  84.7725 275.3648 13.17649416235930
ONEWEB-0296             
1 49085U 21075L   26185.84470763  .00000062  00000+0  13674-3 0  9993
2 49085  87.8966 347.1558 0002167  88.8554 271.2823 13.12440889236892
ONEWEB-0297             
1 49086U 21075M   26185.87519704 -.00000094  00000+0 -29713-3 0  9994
2 49086  87.8951 347.1582 0001890  91.0347 269.0998 13.12443371237508
ONEWEB-0298             
1 49087U 21075N   26185.96118203  .00000030  00000+0  44036-4 0  9998
2 49087  87.9137   2.3310 0001790  87.5942 272.5395 13.17648534235966
ONEWEB-0299             
1 49088U 21075P   26185.88677064 -.00000140  00000+0 -39477-3 0  9991
2 49088  87.9147   2.3278 0001960  85.8246 274.3110 13.17648827235935
ONEWEB-0300             
1 49089U 21075Q   26185.86757043 -.00000312  00000+0 -90327-3 0  9998
2 49089  87.8967 347.1414 0001515  86.3419 273.7883 13.12442488237528
ONEWEB-0301             
1 49090U 21075R   26185.85147687 -.00000339  00000+0 -97764-3 0  9997
2 49090  87.8958 347.1419 0001478  91.4436 268.6862 13.12441442236886
ONEWEB-0302             
1 49091U 21075S   26185.83792594  .00000159  00000+0  40549-3 0  9996
2 49091  87.8963 347.1571 0002104  96.4083 263.7286 13.12441193236869
ONEWEB-0304             
1 49092U 21075T   26185.93739386  .00000037  00000+0  62497-4 0  9990
2 49092  87.9138   2.3385 0001958  86.9990 273.1366 13.17650677235918
ONEWEB-0305             
1 49093U 21075U   26185.77877615 -.00000023  00000+0 -93202-4 0  9996
2 49093  87.9145   2.3559 0002078  80.8920 279.2446 13.17649765235923
ONEWEB-0308             
1 49094U 21075V   26185.90738790  .00000376  00000+0  10088-2 0  9990
2 49094  87.8961 347.1353 0001825  94.6454 265.4883 13.12441304236887
